HAWK-11C                
1 62381U 24247E   26068.51221537  .00009223  00000+0  33290-3 0  9992
2 62381  45.0045 114.8762 0005900 329.7040  30.3502 15.28848020 67743
STARLINK-34334          
1 64273U 25120T   26068.44854422  .00025378  00000+0  86638-3 0  9995
2 64273  53.1603 117.4995 0001514  66.6035 293.5125 15.30187106 43887
